OBJECT_NAME,OBJECT_ID,EPOCH,MEAN_MOTION,ECCENTRICITY,INCLINATION,RA_OF_ASC_NODE,ARG_OF_PERICENTER,MEAN_ANOMALY,EPHEMERIS_TYPE,CLASSIFICATION_TYPE,NORAD_CAT_ID,ELEMENT_SET_NO,REV_AT_EPOCH,BSTAR,MEAN_MOTION_DOT,MEAN_MOTION_DDOT
2026-132G,2026-132G,2026-07-08T10:26:01.194720,15.07822118,.00227243,97.6584,252.9897,215.5682,144.4033,0,U,69676,999,397,.42280853E-3,.6448E-4,0
STARLINK-38005,2026-145A,2026-07-09T18:38:41.341632,15.75208532,.0001559,97.2866,37.3454,89.0696,271.0748,0,U,69677,999,232,.13161E-2,.201024E-2,0
STARLINK-38009,2026-145B,2026-07-09T14:01:42.275712,15.75203286,.0001099,97.2843,37.1484,55.6105,304.5264,0,U,69678,999,229,.71367E-3,.107732E-2,0
STARLINK-37998,2026-145C,2026-07-09T18:32:35.369376,15.75233257,.0001434,97.2854,37.3517,56.1644,303.9757,0,U,69679,999,232,.1155E-2,.176072E-2,0
STARLINK-37994,2026-145D,2026-07-09T06:00:02.000160,15.75248303,.00015203,97.2858,36.8015,90.2146,180.4054,0,U,69680,999,347,-.11229033E-2,-.164851E-2,0
STARLINK-37992,2026-145E,2026-07-08T18:09:55.224288,15.75252265,.00011561,97.2865,36.2836,60.7289,299.4092,0,U,69681,999,216,.86681323E-3,.131523E-2,0
STARLINK-37997,2026-145F,2026-07-09T20:00:01.999008,15.75238167,.0001372,97.2854,37.4149,103.1836,239.0695,0,U,69682,999,356,-.86845E-3,-.128012E-2,0
STARLINK-37990,2026-145G,2026-07-09T00:15:19.459296,15.75225817,.00006716,97.2845,36.5511,110.0329,250.1009,0,U,69683,999,220,.13293057E-2,.203251E-2,0
STARLINK-37951,2026-145H,2026-07-09T00:14:18.200832,15.75312370,.00012472,97.2859,36.5523,239.0943,121.0200,0,U,69684,999,220,.15537936E-2,.23951E-2,0
STARLINK-37957,2026-145J,2026-07-09T13:56:06.893376,15.75192540,.0000953,97.2848,37.1532,110.2721,249.8646,0,U,69685,999,229,.11146E-2,.169474E-2,0
STARLINK-37968,2026-145K,2026-07-09T13:47:28.719744,15.75209818,.0001125,97.2855,37.1615,98.8773,261.2619,0,U,69686,999,229,.11313E-2,.172202E-2,0
STARLINK-37977,2026-145L,2026-07-09T04:37:34.580640,15.75200613,.00023411,97.2852,36.7652,105.4397,254.7127,0,U,69687,999,223,.1113021E-2,.169303E-2,0
STARLINK-37908,2026-145M,2026-07-09T00:00:03.934656,15.75295450,.00025453,97.2858,36.5666,242.4999,117.6007,0,U,69688,999,220,.98606223E-3,.150259E-2,0
STARLINK-37979,2026-145N,2026-07-08T23:59:33.799200,15.75298371,.00014202,97.2856,36.5668,239.3186,120.7939,0,U,69689,999,220,.10088985E-2,.153814E-2,0
STARLINK-37940,2026-145P,2026-07-09T18:15:49.275072,15.75212135,.0001851,97.2859,37.3677,42.1888,317.9520,0,U,69690,999,232,.11223E-2,.170819E-2,0
STARLINK-37961,2026-145Q,2026-07-09T18:11:14.760672,15.75218362,.0001037,97.2848,37.3721,69.0673,291.0703,0,U,69691,999,232,.11886E-2,.181194E-2,0
STARLINK-37787,2026-145R,2026-07-08T23:50:25.100448,15.75294301,.00015402,97.2838,36.5752,314.5448,45.5692,0,U,69692,999,220,.11246585E-2,.171811E-2,0
STARLINK-37962,2026-145S,2026-07-09T00:00:02.000160,15.75169922,.00014136,97.2855,36.5870,107.5734,300.3729,0,U,69693,999,343,-.31314679E-3,-.46544E-3,0
STARLINK-37953,2026-145T,2026-07-09T18:09:43.403040,15.75206353,.0001339,97.2859,37.3728,48.0143,312.1236,0,U,69694,999,232,.10573E-2,.160695E-2,0
STARLINK-37926,2026-145U,2026-07-09T20:00:01.999008,15.75298592,.0001425,97.2861,37.4573,99.9643,338.2644,0,U,69695,999,356,-.15408E-2,-.225075E-2,0
STARLINK-37959,2026-145V,2026-07-09T18:07:11.006400,15.75212213,.0001693,97.2840,37.3757,39.5220,320.6168,0,U,69696,999,232,.11842E-2,.180461E-2,0
STARLINK-37976,2026-145W,2026-07-09T18:03:06.668928,15.75211166,.0001421,97.2864,37.3804,154.4704,205.6632,0,U,69697,999,232,.95852E-3,.145432E-2,0
STARLINK-37912,2026-145X,2026-07-09T18:01:35.516064,15.75203624,.0001045,97.2854,37.3819,87.9569,272.1816,0,U,69698,999,232,.79793E-3,.120651E-2,0
STARLINK-37974,2026-145Y,2026-07-09T18:00:34.255008,15.75219381,.0000537,97.2856,37.3817,52.8336,307.2978,0,U,69699,999,232,.10707E-2,.162866E-2,0
STARLINK-37955,2026-145Z,2026-07-09T17:56:59.355744,15.75258103,.0001038,97.2859,37.3868,130.6467,229.4889,0,U,69700,999,232,.96336E-3,.146482E-2,0
STRIX-8,2026-146A,2026-07-09T18:35:48.659136,15.04405220,.0008047,41.9901,43.1189,346.6171,13.4442,0,U,69701,999,196,.2271E-3,.3037E-4,0
ELECTRON R/B,2026-146B,2026-07-08T22:39:31.428864,15.70078173,.01865229,42.0773,41.0282,336.3329,22.9027,0,U,69702,999,192,.8408839E-3,.304904E-2,.34682837E-4
ELECTRON KICK STAGE R/B,2026-146C,2026-07-09T07:20:21.412896,15.04913767,.00099142,41.9884,45.6572,344.7857,15.2671,0,U,69703,999,189,.19767173E-3,.2657E-4,0
STARLINK-38055,2026-147A,2026-07-09T12:50:53.871936,15.81133624,.0001706,97.2836,226.5932,80.7413,279.4048,0,U,69704,999,296,.11826E-2,.236029E-2,0
STARLINK-37898,2026-147B,2026-07-09T12:49:39.988704,15.81266069,.0000253,97.2870,226.5956,238.0726,122.0517,0,U,69705,999,296,.15539E-2,.314937E-2,0
