2026-132G               
1 69676U 26132G   26189.43473605  .00006448  00000+0  42281-3 0  9997
2 69676  97.6584 252.9897 0022724 215.5682 144.4033 15.07822118  3976
STARLINK-38005          
1 69677U 26145A   26190.77686738  .00201024  00000+0  13161-2 0  9995
2 69677  97.2866  37.3454 0001559  89.0696 271.0748 15.75208532  2323
STARLINK-38009          
1 69678U 26145B   26190.58451708  .00107732  00000+0  71367-3 0  9996
2 69678  97.2843  37.1484 0001099  55.6105 304.5264 15.75203286  2295
STARLINK-37998          
1 69679U 26145C   26190.77263159  .00176072  00000+0  11550-2 0  9999
2 69679  97.2854  37.3517 0001434  56.1644 303.9757 15.75233257  2329
STARLINK-37994          
1 69680U 26145D   26190.25002315 -.00164851  00000+0 -11229-2 0  9996
2 69680  97.2858  36.8015 0001520  90.2146 180.4054 15.75248303  3477
STARLINK-37992          
1 69681U 26145E   26189.75688917  .00131523  00000+0  86681-3 0  9991
2 69681  97.2865  36.2836 0001156  60.7289 299.4092 15.75252265  2166
STARLINK-37997          
1 69682U 26145F   26190.83335647 -.00128012  00000+0 -86845-3 0  9995
2 69682  97.2854  37.4149 0001372 103.1836 239.0695 15.75238167  3564
STARLINK-37990          
1 69683U 26145G   26190.01064189  .00203251  00000+0  13293-2 0  9999
2 69683  97.2845  36.5511 0000671 110.0329 250.1009 15.75225817  2204
STARLINK-37951          
1 69684U 26145H   26190.00993288  .00239510  00000+0  15538-2 0  9991
2 69684  97.2859  36.5523 0001247 239.0943 121.0200 15.75312370  2207
STARLINK-37957          
1 69685U 26145J   26190.58063534  .00169474  00000+0  11146-2 0  9999
2 69685  97.2848  37.1532 0000953 110.2721 249.8646 15.75192540  2297
STARLINK-37968          
1 69686U 26145K   26190.57463796  .00172202  00000+0  11313-2 0  9992
2 69686  97.2855  37.1615 0001125  98.8773 261.2619 15.75209818  2293
STARLINK-37977          
1 69687U 26145L   26190.19276135  .00169303  00000+0  11130-2 0  9995
2 69687  97.2852  36.7652 0002341 105.4397 254.7127 15.75200613  2234
STARLINK-37908          
1 69688U 26145M   26190.00004554  .00150259  00000+0  98606-3 0  9994
2 69688  97.2858  36.5666 0002545 242.4999 117.6007 15.75295450  2204
STARLINK-37979          
1 69689U 26145N   26189.99969675  .00153814  00000+0  10089-2 0  9993
2 69689  97.2856  36.5668 0001420 239.3186 120.7939 15.75298371  2203
STARLINK-37940          
1 69690U 26145P   26190.76098698  .00170819  00000+0  11223-2 0  9995
2 69690  97.2859  37.3677 0001851  42.1888 317.9520 15.75212135  2327
STARLINK-37961          
1 69691U 26145Q   26190.75780973  .00181194  00000+0  11886-2 0  9992
2 69691  97.2848  37.3721 0001037  69.0673 291.0703 15.75218362  2325
STARLINK-37787          
1 69692U 26145R   26189.99334607  .00171811  00000+0  11247-2 0  9992
2 69692  97.2838  36.5752 0001540 314.5448  45.5692 15.75294301  2200
STARLINK-37962          
1 69693U 26145S   26190.00002315 -.00046544  00000+0 -31315-3 0  9990
2 69693  97.2855  36.5870 0001413 107.5734 300.3729 15.75169922  3437
STARLINK-37953          
1 69694U 26145T   26190.75675235  .00160695  00000+0  10573-2 0  9994
2 69694  97.2859  37.3728 0001339  48.0143 312.1236 15.75206353  2324
STARLINK-37926          
1 69695U 26145U   26190.83335647 -.00225075  00000+0 -15408-2 0  9992
2 69695  97.2861  37.4573 0001425  99.9643 338.2644 15.75298592  3568
STARLINK-37959          
1 69696U 26145V   26190.75498850  .00180461  00000+0  11842-2 0  9995
2 69696  97.2840  37.3757 0001693  39.5220 320.6168 15.75212213  2322
STARLINK-37976          
1 69697U 26145W   26190.75216052  .00145432  00000+0  95852-3 0  9991
2 69697  97.2864  37.3804 0001421 154.4704 205.6632 15.75211166  2329
STARLINK-37912          
1 69698U 26145X   26190.75110551  .00120651  00000+0  79793-3 0  9991
2 69698  97.2854  37.3819 0001045  87.9569 272.1816 15.75203624  2329
STARLINK-37974          
1 69699U 26145Y   26190.75039647  .00162866  00000+0  10707-2 0  9991
2 69699  97.2856  37.3817 0000537  52.8336 307.2978 15.75219381  2324
STARLINK-37955          
1 69700U 26145Z   26190.74790921  .00146482  00000+0  96336-3 0  9991
2 69700  97.2859  37.3868 0001038 130.6467 229.4889 15.75258103  2324
STRIX-8                 
1 69701U 26146A   26190.77486874  .00003037  00000+0  22710-3 0  9998
2 69701  41.9901  43.1189 0008047 346.6171  13.4442 15.04405220  1969
ELECTRON R/B            
1 69702U 26146B   26189.94411376  .00304904  34683-4  84088-3 0  9993
2 69702  42.0773  41.0282 0186522 336.3329  22.9027 15.70078173  1922
ELECTRON KICK STAGE R/B 
1 69703U 26146C   26190.30580339  .00002657  00000+0  19767-3 0  9995
2 69703  41.9884  45.6572 0009914 344.7857  15.2671 15.04913767  1894
STARLINK-38055          
1 69704U 26147A   26190.53534574  .00236029  00000+0  11826-2 0  9991
2 69704  97.2836 226.5932 0001706  80.7413 279.4048 15.81133624  2964
STARLINK-37898          
1 69705U 26147B   26190.53449061  .00314937  00000+0  15539-2 0  9998
2 69705  97.2870 226.5956 0000253 238.0726 122.0517 15.81266069  2964
